{
  "type": "FeatureCollection",
  "features": [
    {
      "type": "Feature",
      "properties": {
        "norad_id": 28890,
        "name": "BEIJING 1",
        "group": "dmc",
        "lat": -23.447414881466646,
        "lon": 119.73581740662428,
        "alt_km": 697.9432359098755,
        "timestamp": "2025-12-14T14:39:29.042847+00:00",
        "meta_object_name": "BEIJING 1",
        "meta_object_id": "2005-043A",
        "meta_epoch": "2025-12-13T23:59:49.886880",
        "meta_mean_motion": 14.63368408,
        "meta_eccentricity": 0.00153999,
        "meta_inclination": 98.2649,
        "meta_ra_of_asc_node": 115.5092,
        "meta_arg_of_pericenter": 137.3895,
        "meta_mean_anomaly": 222.8504,
        "meta_ephemeris_type": 0,
        "meta_classification_type": "U",
        "meta_norad_cat_id": 28890,
        "meta_element_set_no": 999,
        "meta_rev_at_epoch": 7356,
        "meta_bstar": 0.00013775637,
        "meta_mean_motion_dot": 6.64e-06,
        "meta_mean_motion_ddot": 0,
        "tle_line1": "1 28890U 05043A   25347.99988295  .00000664  00000+0  13776-3 0  9991",
        "tle_line2": "2 28890  98.2649 115.5092 0015399 137.3895 222.8504 14.63368408 73560"
      },
      "geometry": {
        "type": "Point",
        "coordinates": [
          119.73581740662428,
          -23.447414881466646
        ]
      }
    },
    {
      "type": "Feature",
      "properties": {
        "norad_id": 33320,
        "name": "HUANJING 1A (HJ-1A)",
        "group": "dmc",
        "lat": 40.76714906732129,
        "lon": 163.48937222679103,
        "alt_km": 620.2388478322728,
        "timestamp": "2025-12-14T14:39:29.042871+00:00",
        "meta_object_name": "HUANJING 1A (HJ-1A)",
        "meta_object_id": "2008-041A",
        "meta_epoch": "2025-12-13T23:27:58.699872",
        "meta_mean_motion": 14.83401596,
        "meta_eccentricity": 0.00200182,
        "meta_inclination": 97.6542,
        "meta_ra_of_asc_node": 336.2245,
        "meta_arg_of_pericenter": 30.4833,
        "meta_mean_anomaly": 329.7541,
        "meta_ephemeris_type": 0,
        "meta_classification_type": "U",
        "meta_norad_cat_id": 33320,
        "meta_element_set_no": 999,
        "meta_rev_at_epoch": 93094,
        "meta_bstar": 0.0003638844,
        "meta_mean_motion_dot": 2.945e-05,
        "meta_mean_motion_ddot": 0,
        "tle_line1": "1 33320U 08041A   25347.97776273  .00002945  00000+0  36388-3 0  9993",
        "tle_line2": "2 33320  97.6542 336.2245 0020018  30.4833 329.7541 14.83401596930940"
      },
      "geometry": {
        "type": "Point",
        "coordinates": [
          163.48937222679103,
          40.76714906732129
        ]
      }
    },
    {
      "type": "Feature",
      "properties": {
        "norad_id": 33321,
        "name": "HUANJING 1B (HJ-1B)",
        "group": "dmc",
        "lat": -4.777143447241943,
        "lon": -18.83397679588951,
        "alt_km": 616.8023950678335,
        "timestamp": "2025-12-14T14:39:29.042885+00:00",
        "meta_object_name": "HUANJING 1B (HJ-1B)",
        "meta_object_id": "2008-041B",
        "meta_epoch": "2025-12-14T00:06:14.437728",
        "meta_mean_motion": 14.82827488,
        "meta_eccentricity": 0.00381461,
        "meta_inclination": 97.6402,
        "meta_ra_of_asc_node": 339.9437,
        "meta_arg_of_pericenter": 71.7772,
        "meta_mean_anomaly": 288.7588,
        "meta_ephemeris_type": 0,
        "meta_classification_type": "U",
        "meta_norad_cat_id": 33321,
        "meta_element_set_no": 999,
        "meta_rev_at_epoch": 93096,
        "meta_bstar": 0.00029154852,
        "meta_mean_motion_dot": 2.338e-05,
        "meta_mean_motion_ddot": 0,
        "tle_line1": "1 33321U 08041B   25348.00433377  .00002338  00000+0  29155-3 0  9994",
        "tle_line2": "2 33321  97.6402 339.9437 0038146  71.7772 288.7588 14.82827488930968"
      },
      "geometry": {
        "type": "Point",
        "coordinates": [
          -18.83397679588951,
          -4.777143447241943
        ]
      }
    },
    {
      "type": "Feature",
      "properties": {
        "norad_id": 33446,
        "name": "YAOGAN-4",
        "group": "dmc",
        "lat": -81.28092185834977,
        "lon": 33.53168505561547,
        "alt_km": 622.1909312684929,
        "timestamp": "2025-12-14T14:39:29.042897+00:00",
        "meta_object_name": "YAOGAN-4",
        "meta_object_id": "2008-061A",
        "meta_epoch": "2025-12-13T19:38:34.739232",
        "meta_mean_motion": 14.82687573,
        "meta_eccentricity": 0.00135062,
        "meta_inclination": 97.9179,
        "meta_ra_of_asc_node": 277.9072,
        "meta_arg_of_pericenter": 319.5483,
        "meta_mean_anomaly": 40.4725,
        "meta_ephemeris_type": 0,
        "meta_classification_type": "U",
        "meta_norad_cat_id": 33446,
        "meta_element_set_no": 999,
        "meta_rev_at_epoch": 91819,
        "meta_bstar": 0.00027850382,
        "meta_mean_motion_dot": 2.196e-05,
        "meta_mean_motion_ddot": 0,
        "tle_line1": "1 33446U 08061A   25347.81845763  .00002196  00000+0  27850-3 0  9990",
        "tle_line2": "2 33446  97.9179 277.9072 0013506 319.5483  40.4725 14.82687573918197"
      },
      "geometry": {
        "type": "Point",
        "coordinates": [
          33.53168505561547,
          -81.28092185834977
        ]
      }
    },
    {
      "type": "Feature",
      "properties": {
        "norad_id": 35681,
        "name": "DEIMOS-1",
        "group": "dmc",
        "lat": -15.75690396954366,
        "lon": 151.31864196147717,
        "alt_km": 650.1548498474058,
        "timestamp": "2025-12-14T14:39:29.042908+00:00",
        "meta_object_name": "DEIMOS-1",
        "meta_object_id": "2009-041A",
        "meta_epoch": "2025-12-14T00:04:35.673024",
        "meta_mean_motion": 14.74955721,
        "meta_eccentricity": 0.00027169,
        "meta_inclination": 97.7149,
        "meta_ra_of_asc_node": 148.5475,
        "meta_arg_of_pericenter": 77.5805,
        "meta_mean_anomaly": 282.5708,
        "meta_ephemeris_type": 0,
        "meta_classification_type": "U",
        "meta_norad_cat_id": 35681,
        "meta_element_set_no": 999,
        "meta_rev_at_epoch": 87958,
        "meta_bstar": 0.00016648628,
        "meta_mean_motion_dot": 1.071e-05,
        "meta_mean_motion_ddot": 0,
        "tle_line1": "1 35681U 09041A   25348.00319066  .00001071  00000+0  16649-3 0  9991",
        "tle_line2": "2 35681  97.7149 148.5475 0002716  77.5805 282.5708 14.74955721879588"
      },
      "geometry": {
        "type": "Point",
        "coordinates": [
          151.31864196147717,
          -15.75690396954366
        ]
      }
    },
    {
      "type": "Feature",
      "properties": {
        "norad_id": 35683,
        "name": "UK-DMC 2",
        "group": "dmc",
        "lat": 3.673265901475218,
        "lon": 122.95205086413569,
        "alt_km": 645.7027387638991,
        "timestamp": "2025-12-14T14:39:29.042919+00:00",
        "meta_object_name": "UK-DMC 2",
        "meta_object_id": "2009-041C",
        "meta_epoch": "2025-12-13T23:59:40.469280",
        "meta_mean_motion": 14.75626573,
        "meta_eccentricity": 0.00014691,
        "meta_inclination": 97.8557,
        "meta_ra_of_asc_node": 122.8664,
        "meta_arg_of_pericenter": 97.0032,
        "meta_mean_anomaly": 263.1345,
        "meta_ephemeris_type": 0,
        "meta_classification_type": "U",
        "meta_norad_cat_id": 35683,
        "meta_element_set_no": 999,
        "meta_rev_at_epoch": 87925,
        "meta_bstar": 0.00024701965,
        "meta_mean_motion_dot": 1.637e-05,
        "meta_mean_motion_ddot": 0,
        "tle_line1": "1 35683U 09041C   25347.99977395  .00001637  00000+0  24702-3 0  9992",
        "tle_line2": "2 35683  97.8557 122.8664 0001469  97.0032 263.1345 14.75626573879259"
      },
      "geometry": {
        "type": "Point",
        "coordinates": [
          122.95205086413569,
          3.673265901475218
        ]
      }
    },
    {
      "type": "Feature",
      "properties": {
        "norad_id": 40715,
        "name": "DMC3-FM1",
        "group": "dmc",
        "lat": 60.19513961333544,
        "lon": 49.34048503341703,
        "alt_km": 609.4636897518994,
        "timestamp": "2025-12-14T14:39:29.042929+00:00",
        "meta_object_name": "DMC3-FM1",
        "meta_object_id": "2015-032A",
        "meta_epoch": "2025-12-13T23:34:29.286624",
        "meta_mean_motion": 14.85444035,
        "meta_eccentricity": 0.00046051,
        "meta_inclination": 97.6691,
        "meta_ra_of_asc_node": 215.1296,
        "meta_arg_of_pericenter": 316.4828,
        "meta_mean_anomaly": 43.6024,
        "meta_ephemeris_type": 0,
        "meta_classification_type": "U",
        "meta_norad_cat_id": 40715,
        "meta_element_set_no": 999,
        "meta_rev_at_epoch": 56241,
        "meta_bstar": 0.00018047395,
        "meta_mean_motion_dot": 1.504e-05,
        "meta_mean_motion_ddot": 0,
        "tle_line1": "1 40715U 15032A   25347.98228341  .00001504  00000+0  18047-3 0  9998",
        "tle_line2": "2 40715  97.6691 215.1296 0004605 316.4828  43.6024 14.85444035562415"
      },
      "geometry": {
        "type": "Point",
        "coordinates": [
          49.34048503341703,
          60.19513961333544
        ]
      }
    },
    {
      "type": "Feature",
      "properties": {
        "norad_id": 40716,
        "name": "DMC3-FM2",
        "group": "dmc",
        "lat": -1.4535714705333078,
        "lon": -142.62366576812244,
        "alt_km": 612.5718911603908,
        "timestamp": "2025-12-14T14:39:29.042940+00:00",
        "meta_object_name": "DMC3-FM2",
        "meta_object_id": "2015-032B",
        "meta_epoch": "2025-12-13T22:29:52.724256",
        "meta_mean_motion": 14.85448053,
        "meta_eccentricity": 0.00051601,
        "meta_inclination": 97.6749,
        "meta_ra_of_asc_node": 216.5312,
        "meta_arg_of_pericenter": 322.3212,
        "meta_mean_anomaly": 37.7641,
        "meta_ephemeris_type": 0,
        "meta_classification_type": "U",
        "meta_norad_cat_id": 40716,
        "meta_element_set_no": 999,
        "meta_rev_at_epoch": 56240,
        "meta_bstar": 0.00024729103,
        "meta_mean_motion_dot": 2.081e-05,
        "meta_mean_motion_ddot": 0,
        "tle_line1": "1 40716U 15032B   25347.93741579  .00002081  00000+0  24729-3 0  9992",
        "tle_line2": "2 40716  97.6749 216.5312 0005160 322.3212  37.7641 14.85448053562406"
      },
      "geometry": {
        "type": "Point",
        "coordinates": [
          -142.62366576812244,
          -1.4535714705333078
        ]
      }
    },
    {
      "type": "Feature",
      "properties": {
        "norad_id": 40717,
        "name": "DMC3-FM3",
        "group": "dmc",
        "lat": -62.00071119984529,
        "lon": 24.111287494706122,
        "alt_km": 618.8277399438775,
        "timestamp": "2025-12-14T14:39:29.042950+00:00",
        "meta_object_name": "DMC3-FM3",
        "meta_object_id": "2015-032C",
        "meta_epoch": "2025-12-13T23:01:01.737696",
        "meta_mean_motion": 14.85435309,
        "meta_eccentricity": 0.00045338,
        "meta_inclination": 97.6805,
        "meta_ra_of_asc_node": 218.1858,
        "meta_arg_of_pericenter": 324.5826,
        "meta_mean_anomaly": 35.5088,
        "meta_ephemeris_type": 0,
        "meta_classification_type": "U",
        "meta_norad_cat_id": 40717,
        "meta_element_set_no": 999,
        "meta_rev_at_epoch": 56241,
        "meta_bstar": 0.00015163012,
        "meta_mean_motion_dot": 1.255e-05,
        "meta_mean_motion_ddot": 0,
        "tle_line1": "1 40717U 15032C   25347.95904789  .00001255  00000+0  15163-3 0  9993",
        "tle_line2": "2 40717  97.6805 218.1858 0004533 324.5826  35.5088 14.85435309562413"
      },
      "geometry": {
        "type": "Point",
        "coordinates": [
          24.111287494706122,
          -62.00071119984529
        ]
      }
    }
  ]
}